CCSDS_OMM_VERS = 2.0
CREATION_DATE  = 
ORIGINATOR     = 

OBJECT_NAME    = SPAINSAT NG II
OBJECT_ID      = 2025-239A
CENTER_NAME    = EARTH
REF_FRAME      = TEME
TIME_SYSTEM    = UTC
MEAN_ELEMENT_THEORY = SGP/SGP4

EPOCH          = 2025-11-17T20:11:51.104544
MEAN_MOTION    = 1.04198281
ECCENTRICITY   = .78696251
INCLINATION    = 19.9038
RA_OF_ASC_NODE = 243.4991
ARG_OF_PERICENTER = 184.0240
MEAN_ANOMALY   = 159.6654

EPHEMERIS_TYPE = 0
CLASSIFICATION_TYPE = U
NORAD_CAT_ID   = 66144
ELEMENT_SET_NO = 999
REV_AT_EPOCH   = 29
BSTAR          = 0
MEAN_MOTION_DOT = -.354E-5
MEAN_MOTION_DDOT = 0

CCSDS_OMM_VERS = 2.0
CREATION_DATE  = 
ORIGINATOR     = 

OBJECT_NAME    = STARLINK-35318
OBJECT_ID      = 2025-240A
CENTER_NAME    = EARTH
REF_FRAME      = TEME
TIME_SYSTEM    = UTC
MEAN_ELEMENT_THEORY = SGP/SGP4

EPOCH          = 2025-11-20T18:52:48.245664
MEAN_MOTION    = 15.39650035
ECCENTRICITY   = .00012375
INCLINATION    = 53.1588
RA_OF_ASC_NODE = 210.1639
ARG_OF_PERICENTER = 92.8404
MEAN_ANOMALY   = 267.2743

EPHEMERIS_TYPE = 0
CLASSIFICATION_TYPE = U
NORAD_CAT_ID   = 66146
ELEMENT_SET_NO = 999
REV_AT_EPOCH   = 534
BSTAR          = .77872022E-3
MEAN_MOTION_DOT = .30906E-3
MEAN_MOTION_DDOT = 0

CCSDS_OMM_VERS = 2.0
CREATION_DATE  = 
ORIGINATOR     = 

OBJECT_NAME    = STARLINK-33948
OBJECT_ID      = 2025-240B
CENTER_NAME    = EARTH
REF_FRAME      = TEME
TIME_SYSTEM    = UTC
MEAN_ELEMENT_THEORY = SGP/SGP4

EPOCH          = 2025-11-19T04:57:33.828192
MEAN_MOTION    = 15.49238093
ECCENTRICITY   = .00007298
INCLINATION    = 53.1591
RA_OF_ASC_NODE = 217.3645
ARG_OF_PERICENTER = 92.4248
MEAN_ANOMALY   = 267.6845

EPHEMERIS_TYPE = 0
CLASSIFICATION_TYPE = U
NORAD_CAT_ID   = 66147
ELEMENT_SET_NO = 999
REV_AT_EPOCH   = 510
BSTAR          = -.31761632E-4
MEAN_MOTION_DOT = -.2209E-4
MEAN_MOTION_DDOT = 0

CCSDS_OMM_VERS = 2.0
CREATION_DATE  = 
ORIGINATOR     = 

OBJECT_NAME    = STARLINK-35081
OBJECT_ID      = 2025-240C
CENTER_NAME    = EARTH
REF_FRAME      = TEME
TIME_SYSTEM    = UTC
MEAN_ELEMENT_THEORY = SGP/SGP4

EPOCH          = 2025-11-20T21:01:32.727936
MEAN_MOTION    = 15.50489926
ECCENTRICITY   = .0001097
INCLINATION    = 53.1595
RA_OF_ASC_NODE = 209.2965
ARG_OF_PERICENTER = 169.1167
MEAN_ANOMALY   = 190.9866

EPHEMERIS_TYPE = 0
CLASSIFICATION_TYPE = U
NORAD_CAT_ID   = 66148
ELEMENT_SET_NO = 999
REV_AT_EPOCH   = 531
BSTAR          = -.25820823E-2
MEAN_MOTION_DOT = -.147403E-2
MEAN_MOTION_DDOT = 0

CCSDS_OMM_VERS = 2.0
CREATION_DATE  = 
ORIGINATOR     = 

OBJECT_NAME    = STARLINK-35601
OBJECT_ID      = 2025-240D
CENTER_NAME    = EARTH
REF_FRAME      = TEME
TIME_SYSTEM    = UTC
MEAN_ELEMENT_THEORY = SGP/SGP4

EPOCH          = 2025-11-21T00:00:02.000160
MEAN_MOTION    = 15.39599532
ECCENTRICITY   = .00011262
INCLINATION    = 53.1588
RA_OF_ASC_NODE = 208.9981
ARG_OF_PERICENTER = 86.7463
MEAN_ANOMALY   = 97.5125

EPHEMERIS_TYPE = 0
CLASSIFICATION_TYPE = U
NORAD_CAT_ID   = 66149
ELEMENT_SET_NO = 999
REV_AT_EPOCH   = 540
BSTAR          = .69456745E-3
MEAN_MOTION_DOT = .27464E-3
MEAN_MOTION_DDOT = 0

CCSDS_OMM_VERS = 2.0
CREATION_DATE  = 
ORIGINATOR     = 

OBJECT_NAME    = STARLINK-35605
OBJECT_ID      = 2025-240E
CENTER_NAME    = EARTH
REF_FRAME      = TEME
TIME_SYSTEM    = UTC
MEAN_ELEMENT_THEORY = SGP/SGP4

EPOCH          = 2025-11-20T16:32:43.165536
MEAN_MOTION    = 15.48642865
ECCENTRICITY   = .00012839
INCLINATION    = 53.1594
RA_OF_ASC_NODE = 210.2652
ARG_OF_PERICENTER = 80.7762
MEAN_ANOMALY   = 279.3392

EPHEMERIS_TYPE = 0
CLASSIFICATION_TYPE = U
NORAD_CAT_ID   = 66150
ELEMENT_SET_NO = 999
REV_AT_EPOCH   = 528
BSTAR          = -.67560181E-2
MEAN_MOTION_DOT = -.351459E-2
MEAN_MOTION_DDOT = 0

CCSDS_OMM_VERS = 2.0
CREATION_DATE  = 
ORIGINATOR     = 

OBJECT_NAME    = STARLINK-35540
OBJECT_ID      = 2025-240F
CENTER_NAME    = EARTH
REF_FRAME      = TEME
TIME_SYSTEM    = UTC
MEAN_ELEMENT_THEORY = SGP/SGP4

EPOCH          = 2025-11-20T21:10:44.919840
MEAN_MOTION    = 15.49341536
ECCENTRICITY   = .00010103
INCLINATION    = 53.1596
RA_OF_ASC_NODE = 209.3362
ARG_OF_PERICENTER = 100.3237
MEAN_ANOMALY   = 259.7886

EPHEMERIS_TYPE = 0
CLASSIFICATION_TYPE = U
NORAD_CAT_ID   = 66151
ELEMENT_SET_NO = 999
REV_AT_EPOCH   = 531
BSTAR          = .14231722E-2
MEAN_MOTION_DOT = .79604E-3
MEAN_MOTION_DDOT = 0

CCSDS_OMM_VERS = 2.0
CREATION_DATE  = 
ORIGINATOR     = 

OBJECT_NAME    = STARLINK-35455
OBJECT_ID      = 2025-240G
CENTER_NAME    = EARTH
REF_FRAME      = TEME
TIME_SYSTEM    = UTC
MEAN_ELEMENT_THEORY = SGP/SGP4

EPOCH          = 2025-11-20T18:46:06.955680
MEAN_MOTION    = 15.39654288
ECCENTRICITY   = .00016966
INCLINATION    = 53.1586
RA_OF_ASC_NODE = 210.1332
ARG_OF_PERICENTER = 126.1991
MEAN_ANOMALY   = 233.9171

EPHEMERIS_TYPE = 0
CLASSIFICATION_TYPE = U
NORAD_CAT_ID   = 66152
ELEMENT_SET_NO = 999
REV_AT_EPOCH   = 529
BSTAR          = .79163236E-3
MEAN_MOTION_DOT = .31432E-3
MEAN_MOTION_DDOT = 0

CCSDS_OMM_VERS = 2.0
CREATION_DATE  = 
ORIGINATOR     = 

OBJECT_NAME    = STARLINK-34752
OBJECT_ID      = 2025-240H
CENTER_NAME    = EARTH
REF_FRAME      = TEME
TIME_SYSTEM    = UTC
MEAN_ELEMENT_THEORY = SGP/SGP4

EPOCH          = 2025-11-21T00:00:02.000160
MEAN_MOTION    = 15.39601773
ECCENTRICITY   = .00010623
INCLINATION    = 53.1591
RA_OF_ASC_NODE = 208.9472
ARG_OF_PERICENTER = 83.5984
MEAN_ANOMALY   = 126.4051

EPHEMERIS_TYPE = 0
CLASSIFICATION_TYPE = U
NORAD_CAT_ID   = 66153
ELEMENT_SET_NO = 999
REV_AT_EPOCH   = 540
BSTAR          = .72489698E-3
MEAN_MOTION_DOT = .28687E-3
MEAN_MOTION_DDOT = 0

CCSDS_OMM_VERS = 2.0
CREATION_DATE  = 
ORIGINATOR     = 

OBJECT_NAME    = STARLINK-34625
OBJECT_ID      = 2025-240J
CENTER_NAME    = EARTH
REF_FRAME      = TEME
TIME_SYSTEM    = UTC
MEAN_ELEMENT_THEORY = SGP/SGP4

EPOCH          = 2025-11-21T00:00:02.000160
MEAN_MOTION    = 15.42518179
ECCENTRICITY   = .00016204
INCLINATION    = 53.1595
RA_OF_ASC_NODE = 208.8005
ARG_OF_PERICENTER = 93.5069
MEAN_ANOMALY   = 190.3116

EPHEMERIS_TYPE = 0
CLASSIFICATION_TYPE = U
NORAD_CAT_ID   = 66154
ELEMENT_SET_NO = 999
REV_AT_EPOCH   = 545
BSTAR          = -.48219478E-1
MEAN_MOTION_DOT = -.1904166E-1
MEAN_MOTION_DDOT = 0

CCSDS_OMM_VERS = 2.0
CREATION_DATE  = 
ORIGINATOR     = 

OBJECT_NAME    = STARLINK-35580
OBJECT_ID      = 2025-240K
CENTER_NAME    = EARTH
REF_FRAME      = TEME
TIME_SYSTEM    = UTC
MEAN_ELEMENT_THEORY = SGP/SGP4

EPOCH          = 2025-11-20T21:08:46.041216
MEAN_MOTION    = 15.49357088
ECCENTRICITY   = .00012123
INCLINATION    = 53.1595
RA_OF_ASC_NODE = 209.3258
ARG_OF_PERICENTER = 92.8621
MEAN_ANOMALY   = 267.2527

EPHEMERIS_TYPE = 0
CLASSIFICATION_TYPE = U
NORAD_CAT_ID   = 66155
ELEMENT_SET_NO = 999
REV_AT_EPOCH   = 531
BSTAR          = .93323767E-3
MEAN_MOTION_DOT = .51888E-3
MEAN_MOTION_DDOT = 0

CCSDS_OMM_VERS = 2.0
CREATION_DATE  = 
ORIGINATOR     = 

OBJECT_NAME    = STARLINK-35621
OBJECT_ID      = 2025-240L
CENTER_NAME    = EARTH
REF_FRAME      = TEME
TIME_SYSTEM    = UTC
MEAN_ELEMENT_THEORY = SGP/SGP4

EPOCH          = 2025-11-21T00:00:02.000160
MEAN_MOTION    = 15.39600990
ECCENTRICITY   = .00014052
INCLINATION    = 53.1597
RA_OF_ASC_NODE = 208.8946
ARG_OF_PERICENTER = 90.1107
MEAN_ANOMALY   = 145.6585

EPHEMERIS_TYPE = 0
CLASSIFICATION_TYPE = U
NORAD_CAT_ID   = 66156
ELEMENT_SET_NO = 999
REV_AT_EPOCH   = 540
BSTAR          = .71795413E-3
MEAN_MOTION_DOT = .28407E-3
MEAN_MOTION_DDOT = 0

CCSDS_OMM_VERS = 2.0
CREATION_DATE  = 
ORIGINATOR     = 

OBJECT_NAME    = STARLINK-35594
OBJECT_ID      = 2025-240M
CENTER_NAME    = EARTH
REF_FRAME      = TEME
TIME_SYSTEM    = UTC
MEAN_ELEMENT_THEORY = SGP/SGP4

EPOCH          = 2025-11-20T21:07:46.813152
MEAN_MOTION    = 15.49336582
ECCENTRICITY   = .00011846
INCLINATION    = 53.1596
RA_OF_ASC_NODE = 209.3216
ARG_OF_PERICENTER = 102.7154
MEAN_ANOMALY   = 257.3988

EPHEMERIS_TYPE = 0
CLASSIFICATION_TYPE = U
NORAD_CAT_ID   = 66157
ELEMENT_SET_NO = 999
REV_AT_EPOCH   = 531
BSTAR          = .92852928E-3
MEAN_MOTION_DOT = .51585E-3
MEAN_MOTION_DDOT = 0

CCSDS_OMM_VERS = 2.0
CREATION_DATE  = 
ORIGINATOR     = 

OBJECT_NAME    = STARLINK-35587
OBJECT_ID      = 2025-240N
CENTER_NAME    = EARTH
REF_FRAME      = TEME
TIME_SYSTEM    = UTC
MEAN_ELEMENT_THEORY = SGP/SGP4

EPOCH          = 2025-11-21T00:00:02.000160
MEAN_MOTION    = 15.39598603
ECCENTRICITY   = .00009913
INCLINATION    = 53.1587
RA_OF_ASC_NODE = 209.0467
ARG_OF_PERICENTER = 86.0935
MEAN_ANOMALY   = 72.4248

EPHEMERIS_TYPE = 0
CLASSIFICATION_TYPE = U
NORAD_CAT_ID   = 66158
ELEMENT_SET_NO = 999
REV_AT_EPOCH   = 540
BSTAR          = .63611721E-3
MEAN_MOTION_DOT = .2511E-3
MEAN_MOTION_DDOT = 0

CCSDS_OMM_VERS = 2.0
CREATION_DATE  = 
ORIGINATOR     = 

OBJECT_NAME    = STARLINK-35586
OBJECT_ID      = 2025-240P
CENTER_NAME    = EARTH
REF_FRAME      = TEME
TIME_SYSTEM    = UTC
MEAN_ELEMENT_THEORY = SGP/SGP4

EPOCH          = 2025-11-20T21:06:47.529792
MEAN_MOTION    = 15.49333628
ECCENTRICITY   = .00011994
INCLINATION    = 53.1595
RA_OF_ASC_NODE = 209.3167
ARG_OF_PERICENTER = 103.6217
MEAN_ANOMALY   = 256.4926

EPHEMERIS_TYPE = 0
CLASSIFICATION_TYPE = U
NORAD_CAT_ID   = 66159
ELEMENT_SET_NO = 999
REV_AT_EPOCH   = 531
BSTAR          = .12707671E-2
MEAN_MOTION_DOT = .70933E-3
MEAN_MOTION_DDOT = 0

